ONEWEB-0331             
1 49198U 21083N   24256.55036986  .00000010  00000+0 -78969-5 0  9991
2 49198  87.9067 103.3795 0001881  74.2668 285.8671 13.18685835145318
ONEWEB-0333             
1 49199U 21083P   24256.50628973  .00000155  00000+0  38964-3 0  9998
2 49199  87.8856  88.1449 0001610  91.2985 268.8329 13.13470982146548
ONEWEB-0334             
1 49200U 21083Q   24256.38956662  .00000119  00000+0  26093-3 0  9996
2 49200  87.9224  42.3300 0001486 132.7757 227.3502 13.20768734151944
ONEWEB-0335             
1 49201U 21083R   24256.57772066 -.00000184  00000+0 -53904-3 0  9997
2 49201  87.8854  88.1191 0001870  86.0207 274.1136 13.13467742146569
ONEWEB-0336             
1 49202U 21083S   24256.54757791 -.00000995  00000+0 -27610-2 0  9997
2 49202  87.8854  88.1206 0001492  85.0864 275.0435 13.13459067146557
ONEWEB-0337             
1 49203U 21083T   24256.55694054 -.00000132  00000+0 -39725-3 0  9995
2 49203  87.8854  88.1173 0001790  84.2522 275.8811 13.13466358146551
ONEWEB-0338             
1 49204U 21083U   24256.39669595  .00000091  00000+0  19239-3 0  9990
2 49204  87.9228  42.3174 0001813 108.2540 251.8790 13.20771286151962
ONEWEB-0339             
1 49205U 21083V   24256.56819999 -.00000223  00000+0 -64677-3 0  9990
2 49205  87.8853  88.1084 0001824  88.1200 272.0138 13.13468256146535
